ONEWEB-0290             
1 49080U 21075F   25307.57211317  .00000021  00000+0  22053-4 0  9998
2 49080  87.9130  50.7056 0002372  99.2864 260.8536 13.17650613203903
ONEWEB-0291             
1 49081U 21075G   25307.55692661  .00000117  00000+0  26750-3 0  9995
2 49081  87.9134  50.7145 0001733  88.3347 271.7983 13.17650531203896
ONEWEB-0293             
1 49082U 21075H   25307.58223323  .00000070  00000+0  14748-3 0  9996
2 49082  87.9128  50.7342 0001819  99.2514 260.8823 13.17650940203921
ONEWEB-0294             
1 49083U 21075J   25306.21890469 -.00000248  00000+0 -72354-3 0  9993
2 49083  87.8970  35.7424 0002240  94.1282 266.0103 13.12444736204801
ONEWEB-0295             
1 49084U 21075K   25307.58138855  .00000087  00000+0  19109-3 0  9997
2 49084  87.9124  50.7390 0001611  87.9081 272.2235 13.17649097203885
ONEWEB-0296             
1 49085U 21075L   25306.50440478 -.00000331  00000+0 -95603-3 0  9993
2 49085  87.8972  35.6914 0001878  87.0349 273.0995 13.12442760204845
ONEWEB-0297             
1 49086U 21075M   25306.30649652  .00000369  00000+0  98893-3 0  9990
2 49086  87.8963  35.7650 0001754  99.7310 260.4017 13.12446694205425
ONEWEB-0298             
1 49087U 21075N   25306.52264067 -.00000012  00000+0 -64193-4 0  9992
2 49087  87.9134  50.9460 0001667 103.2808 256.8510 13.17650573203772
ONEWEB-0299             
1 49088U 21075P   25307.58729973  .00000072  00000+0  15254-3 0  9999
2 49088  87.9140  50.6928 0001589  97.6263 262.5049 13.17649697203899
ONEWEB-0300             
1 49089U 21075Q   25306.22215263  .00000027  00000+0  40509-4 0  9994
2 49089  87.8976  35.7383 0001603 111.6723 248.4576 13.12445648205435
ONEWEB-0301             
1 49090U 21075R   25306.51088601 -.00000407  00000+0 -11679-2 0  9990
2 49090  87.8970  35.6840 0001597 115.3883 244.7411 13.12444784204838
ONEWEB-0302             
1 49091U 21075S   25306.49790252 -.00000097  00000+0 -30590-3 0  9999
2 49091  87.8977  35.6944 0002001  93.5014 266.6343 13.12441051204814
ONEWEB-0304             
1 49092U 21075T   25307.56198733  .00000085  00000+0  18581-3 0  9996
2 49092  87.9131  50.7281 0001673  96.6069 263.5253 13.17650731203860
ONEWEB-0305             
1 49093U 21075U   25307.70710505 -.00000056  00000+0 -17813-3 0  9997
2 49093  87.9137  50.6763 0001532  89.3917 270.7390 13.17650859203915
ONEWEB-0308             
1 49094U 21075V   25306.49141808  .00000042  00000+0  80731-4 0  9990
2 49094  87.8975  35.6881 0001796 102.4738 257.6591 13.12440810204826
ONEWEB-0309             
1 49095U 21075W   25307.55861440  .00000089  00000+0  19710-3 0  9999
2 49095  87.9131  50.7218 0002067  92.2129 267.9239 13.17649453203861
ONEWEB-0310             
1 49096U 21075X   25306.50601986 -.00000344  00000+0 -99042-3 0  9993
2 49096  87.8962  35.7253 0001848  98.9673 261.1665 13.12443396205457
