[{"OBJECT_NAME":"ONEWEB-0290","OBJECT_ID":"2021-075F","EPOCH":"2025-11-03T13:43:50.577888","MEAN_MOTION":13.17650613,"ECCENTRICITY":0.0002372,"INCLINATION":87.913,"RA_OF_ASC_NODE":50.7056,"ARG_OF_PERICENTER":99.2864,"MEAN_ANOMALY":260.8536,"EPHEMERIS_TYPE":0,"CLASSIFICATION_TYPE":"U","NORAD_CAT_ID":49080,"ELEMENT_SET_NO":999,"REV_AT_EPOCH":20390,"BSTAR":2.2053e-5,"MEAN_MOTION_DOT":2.1e-7,"MEAN_MOTION_DDOT":0},{"OBJECT_NAME":"ONEWEB-0291","OBJECT_ID":"2021-075G","EPOCH":"2025-11-03T13:21:58.459104","MEAN_MOTION":13.17650531,"ECCENTRICITY":0.0001733,"INCLINATION":87.9134,"RA_OF_ASC_NODE":50.7145,"ARG_OF_PERICENTER":88.3347,"MEAN_ANOMALY":271.7983,"EPHEMERIS_TYPE":0,"CLASSIFICATION_TYPE":"U","NORAD_CAT_ID":49081,"ELEMENT_SET_NO":999,"REV_AT_EPOCH":20389,"BSTAR":0.0002675,"MEAN_MOTION_DOT":1.17e-6,"MEAN_MOTION_DDOT":0},{"OBJECT_NAME":"ONEWEB-0293","OBJECT_ID":"2021-075H","EPOCH":"2025-11-03T13:58:24.951072","MEAN_MOTION":13.1765094,"ECCENTRICITY":0.0001819,"INCLINATION":87.9128,"RA_OF_ASC_NODE":50.7342,"ARG_OF_PERICENTER":99.2514,"MEAN_ANOMALY":260.8823,"EPHEMERIS_TYPE":0,"CLASSIFICATION_TYPE":"U","NORAD_CAT_ID":49082,"ELEMENT_SET_NO":999,"REV_AT_EPOCH":20392,"BSTAR":0.00014748,"MEAN_MOTION_DOT":7.0e-7,"MEAN_MOTION_DDOT":0},{"OBJECT_NAME":"ONEWEB-0294","OBJECT_ID":"2021-075J","EPOCH":"2025-11-02T05:15:13.365216","MEAN_MOTION":13.12444736,"ECCENTRICITY":0.00022409,"INCLINATION":87.897,"RA_OF_ASC_NODE":35.7424,"ARG_OF_PERICENTER":94.1282,"MEAN_ANOMALY":266.0103,"EPHEMERIS_TYPE":0,"CLASSIFICATION_TYPE":"U","NORAD_CAT_ID":49083,"ELEMENT_SET_NO":999,"REV_AT_EPOCH":20480,"BSTAR":-0.00072353647,"MEAN_MOTION_DOT":-2.48e-6,"MEAN_MOTION_DDOT":0},{"OBJECT_NAME":"ONEWEB-0295","OBJECT_ID":"2021-075K","EPOCH":"2025-11-03T13:57:11.970720","MEAN_MOTION":13.17649097,"ECCENTRICITY":0.0001611,"INCLINATION":87.9124,"RA_OF_ASC_NODE":50.739,"ARG_OF_PERICENTER":87.9081,"MEAN_ANOMALY":272.2235,"EPHEMERIS_TYPE":0,"CLASSIFICATION_TYPE":"U","NORAD_CAT_ID":49084,"ELEMENT_SET_NO":999,"REV_AT_EPOCH":20388,"BSTAR":0.00019109,"MEAN_MOTION_DOT":8.7e-7,"MEAN_MOTION_DDOT":0},{"OBJECT_NAME":"ONEWEB-0296","OBJECT_ID":"2021-075L","EPOCH":"2025-11-02T12:06:20.572992","MEAN_MOTION":13.1244276,"ECCENTRICITY":0.0001878,"INCLINATION":87.8972,"RA_OF_ASC_NODE":35.6914,"ARG_OF_PERICENTER":87.0349,"MEAN_ANOMALY":273.0995,"EPHEMERIS_TYPE":0,"CLASSIFICATION_TYPE":"U","NORAD_CAT_ID":49085,"ELEMENT_SET_NO":999,"REV_AT_EPOCH":20484,"BSTAR":-0.00095603,"MEAN_MOTION_DOT":-3.31e-6,"MEAN_MOTION_DDOT":0},{"OBJECT_NAME":"ONEWEB-0297","OBJECT_ID":"2021-075M","EPOCH":"2025-11-02T07:21:21.299328","MEAN_MOTION":13.12446694,"ECCENTRICITY":0.00017546,"INCLINATION":87.8963,"RA_OF_ASC_NODE":35.765,"ARG_OF_PERICENTER":99.731,"MEAN_ANOMALY":260.4017,"EPHEMERIS_TYPE":0,"CLASSIFICATION_TYPE":"U","NORAD_CAT_ID":49086,"ELEMENT_SET_NO":999,"REV_AT_EPOCH":20542,"BSTAR":0.00098893284,"MEAN_MOTION_DOT":3.69e-6,"MEAN_MOTION_DDOT":0},{"OBJECT_NAME":"ONEWEB-0298","OBJECT_ID":"2021-075N","EPOCH":"2025-11-02T12:32:36.153888","MEAN_MOTION":13.17650573,"ECCENTRICITY":0.0001667,"INCLINATION":87.9134,"RA_OF_ASC_NODE":50.946,"ARG_OF_PERICENTER":103.2808,"MEAN_ANOMALY":256.851,"EPHEMERIS_TYPE":0,"CLASSIFICATION_TYPE":"U","NORAD_CAT_ID":49087,"ELEMENT_SET_NO":999,"REV_AT_EPOCH":20377,"BSTAR":-6.4193e-5,"MEAN_MOTION_DOT":-1.2e-7,"MEAN_MOTION_DDOT":0},{"OBJECT_NAME":"ONEWEB-0299","OBJECT_ID":"2021-075P","EPOCH":"2025-11-03T14:05:42.696672","MEAN_MOTION":13.17649697,"ECCENTRICITY":0.0001589,"INCLINATION":87.914,"RA_OF_ASC_NODE":50.6928,"ARG_OF_PERICENTER":97.6263,"MEAN_ANOMALY":262.5049,"EPHEMERIS_TYPE":0,"CLASSIFICATION_TYPE":"U","NORAD_CAT_ID":49088,"ELEMENT_SET_NO":999,"REV_AT_EPOCH":20389,"BSTAR":0.00015254,"MEAN_MOTION_DOT":7.2e-7,"MEAN_MOTION_DDOT":0},{"OBJECT_NAME":"ONEWEB-0300","OBJECT_ID":"2021-075Q","EPOCH":"2025-11-02T05:19:53.987232","MEAN_MOTION":13.12445648,"ECCENTRICITY":0.00016034,"INCLINATION":87.8976,"RA_OF_ASC_NODE":35.7383,"ARG_OF_PERICENTER":111.6723,"MEAN_ANOMALY":248.4576,"EPHEMERIS_TYPE":0,"CLASSIFICATION_TYPE":"U","NORAD_CAT_ID":49089,"ELEMENT_SET_NO":999,"REV_AT_EPOCH":20543,"BSTAR":4.0508825e-5,"MEAN_MOTION_DOT":2.7e-7,"MEAN_MOTION_DDOT":0},{"OBJECT_NAME":"ONEWEB-0301","OBJECT_ID":"2021-075R","EPOCH":"2025-11-02T12:15:40.551264","MEAN_MOTION":13.12444784,"ECCENTRICITY":0.0001597,"INCLINATION":87.897,"RA_OF_ASC_NODE":35.684,"ARG_OF_PERICENTER":115.3883,"MEAN_ANOMALY":244.7411,"EPHEMERIS_TYPE":0,"CLASSIFICATION_TYPE":"U","NORAD_CAT_ID":49090,"ELEMENT_SET_NO":999,"REV_AT_EPOCH":20483,"BSTAR":-0.0011679,"MEAN_MOTION_DOT":-4.07e-6,"MEAN_MOTION_DDOT":0},{"OBJECT_NAME":"ONEWEB-0302","OBJECT_ID":"2021-075S","EPOCH":"2025-11-02T11:56:58.777728","MEAN_MOTION":13.12441051,"ECCENTRICITY":0.0002001,"INCLINATION":87.8977,"RA_OF_ASC_NODE":35.6944,"ARG_OF_PERICENTER":93.5014,"MEAN_ANOMALY":266.6343,"EPHEMERIS_TYPE":0,"CLASSIFICATION_TYPE":"U","NORAD_CAT_ID":49091,"ELEMENT_SET_NO":999,"REV_AT_EPOCH":20481,"BSTAR":-0.0003059,"MEAN_MOTION_DOT":-9.7e-7,"MEAN_MOTION_DDOT":0},{"OBJECT_NAME":"ONEWEB-0304","OBJECT_ID":"2021-075T","EPOCH":"2025-11-03T13:29:15.705312","MEAN_MOTION":13.17650731,"ECCENTRICITY":0.0001673,"INCLINATION":87.9131,"RA_OF_ASC_NODE":50.7281,"ARG_OF_PERICENTER":96.6069,"MEAN_ANOMALY":263.5253,"EPHEMERIS_TYPE":0,"CLASSIFICATION_TYPE":"U","NORAD_CAT_ID":49092,"ELEMENT_SET_NO":999,"REV_AT_EPOCH":20386,"BSTAR":0.00018581,"MEAN_MOTION_DOT":8.5e-7,"MEAN_MOTION_DDOT":0},{"OBJECT_NAME":"ONEWEB-0305","OBJECT_ID":"2021-075U","EPOCH":"2025-11-03T16:58:13.876320","MEAN_MOTION":13.17650859,"ECCENTRICITY":0.0001532,"INCLINATION":87.9137,"RA_OF_ASC_NODE":50.6763,"ARG_OF_PERICENTER":89.3917,"MEAN_ANOMALY":270.739,"EPHEMERIS_TYPE":0,"CLASSIFICATION_TYPE":"U","NORAD_CAT_ID":49093,"ELEMENT_SET_NO":999,"REV_AT_EPOCH":20391,"BSTAR":-0.00017813,"MEAN_MOTION_DOT":-5.6e-7,"MEAN_MOTION_DDOT":0},{"OBJECT_NAME":"ONEWEB-0308","OBJECT_ID":"2021-075V","EPOCH":"2025-11-02T11:47:38.522112","MEAN_MOTION":13.1244081,"ECCENTRICITY":0.0001796,"INCLINATION":87.8975,"RA_OF_ASC_NODE":35.6881,"ARG_OF_PERICENTER":102.4738,"MEAN_ANOMALY":257.6591,"EPHEMERIS_TYPE":0,"CLASSIFICATION_TYPE":"U","NORAD_CAT_ID":49094,"ELEMENT_SET_NO":999,"REV_AT_EPOCH":20482,"BSTAR":8.0731e-5,"MEAN_MOTION_DOT":4.2e-7,"MEAN_MOTION_DDOT":0},{"OBJECT_NAME":"ONEWEB-0309","OBJECT_ID":"2021-075W","EPOCH":"2025-11-03T13:24:24.284160","MEAN_MOTION":13.17649453,"ECCENTRICITY":0.0002067,"INCLINATION":87.9131,"RA_OF_ASC_NODE":50.7218,"ARG_OF_PERICENTER":92.2129,"MEAN_ANOMALY":267.9239,"EPHEMERIS_TYPE":0,"CLASSIFICATION_TYPE":"U","NORAD_CAT_ID":49095,"ELEMENT_SET_NO":999,"REV_AT_EPOCH":20386,"BSTAR":0.0001971,"MEAN_MOTION_DOT":8.9e-7,"MEAN_MOTION_DDOT":0},{"OBJECT_NAME":"ONEWEB-0310","OBJECT_ID":"2021-075X","EPOCH":"2025-11-02T12:08:40.115904","MEAN_MOTION":13.12443396,"ECCENTRICITY":0.0001848,"INCLINATION":87.8962,"RA_OF_ASC_NODE":35.7253,"ARG_OF_PERICENTER":98.9673,"MEAN_ANOMALY":261.1665,"EPHEMERIS_TYPE":0,"CLASSIFICATION_TYPE":"U","NORAD_CAT_ID":49096,"ELEMENT_SET_NO":999,"REV_AT_EPOCH":20545,"BSTAR":-0.00099042,"MEAN_MOTION_DOT":-3.44e-6,"MEAN_MOTION_DDOT":0}]
